STARLINK-3978           
1 52635U 22052AP  26068.81221437 -.00000281  00000+0  40528-6 0  9998
2 52635  53.2159 258.5733 0001305 100.3719 259.7421 15.08844363211153
STARLINK-5895           
1 55964U 23037BC  26068.93316413  .00010921  00000+0  72850-3 0  9993
2 55964  69.9972 260.0280 0004986 264.4993  95.5602 15.07243555164606
